[{"OBJECT_NAME":"SHIYAN-6 01 (SY-6 01)","OBJECT_ID":"2018-094B","EPOCH":"2026-03-09T23:04:36.967872","MEAN_MOTION":15.28649156,"ECCENTRICITY":0.00144834,"INCLINATION":97.3669,"RA_OF_ASC_NODE":84.0964,"ARG_OF_PERICENTER":135.6758,"MEAN_ANOMALY":224.5644,"EPHEMERIS_TYPE":0,"CLASSIFICATION_TYPE":"U","NORAD_CAT_ID":43711,"ELEMENT_SET_NO":999,"REV_AT_EPOCH":40632,"BSTAR":0.00024768444,"MEAN_MOTION_DOT":6.847e-5,"MEAN_MOTION_DDOT":0},{"OBJECT_NAME":"STARLINK-34878","OBJECT_ID":"2025-189M","EPOCH":"2026-03-09T15:42:54.021888","MEAN_MOTION":15.30192129,"ECCENTRICITY":0.00010722,"INCLINATION":53.1597,"RA_OF_ASC_NODE":206.7521,"ARG_OF_PERICENTER":50.6921,"MEAN_ANOMALY":309.4175,"EPHEMERIS_TYPE":0,"CLASSIFICATION_TYPE":"U","NORAD_CAT_ID":65334,"ELEMENT_SET_NO":999,"REV_AT_EPOCH":3110,"BSTAR":0.00066262464,"MEAN_MOTION_DOT":0.00019312,"MEAN_MOTION_DDOT":0}]
